{
    "links": {
        "self": "http://www.neowsapp.com/rest/v1/neo/3655731?api_key=iIulBulltgU6a56xZRHN4H3l9WmuAYTsLGpBGhQ2"
    },
    "id": "3655731",
    "neo_reference_id": "3655731",
    "name": "(2013 YU102)",
    "designation": "2013 YU102",
    "nasa_jpl_url": "http://ssd.jpl.nasa.gov/sbdb.cgi?sstr=3655731",
    "absolute_magnitude_h": 26.5,
    "estimated_diameter": {
        "kilometers": {
            "estimated_diameter_min": 0.0133215567,
            "estimated_diameter_max": 0.0297879063
        },
        "meters": {
            "estimated_diameter_min": 13.3215566698,
            "estimated_diameter_max": 29.7879062798
        },
        "miles": {
            "estimated_diameter_min": 0.008277629,
            "estimated_diameter_max": 0.0185093411
        },
        "feet": {
            "estimated_diameter_min": 43.7058959846,
            "estimated_diameter_max": 97.7293544391
        }
    },
    "is_potentially_hazardous_asteroid": false,
    "close_approach_data": [
        {
            "close_approach_date": "1946-02-10",
            "close_approach_date_full": "1946-Feb-10 17:42",
            "epoch_date_close_approach": -753862680000,
            "relative_velocity": {
                "kilometers_per_second": "14.0999305682",
                "kilometers_per_hour": "50759.7500455999",
                "miles_per_hour": "31540.1346880562"
            },
            "miss_distance": {
                "astronomical": "0.3086122057",
                "lunar": "120.0501480173",
                "kilometers": "46167728.628721859",
                "miles": "28687296.3222812942"
            },
            "orbiting_body": "Earth"
        },
        {
            "close_approach_date": "2013-12-30",
            "close_approach_date_full": "2013-Dec-30 09:10",
            "epoch_date_close_approach": 1388394600000,
            "relative_velocity": {
                "kilometers_per_second": "5.2389403636",
                "kilometers_per_hour": "18860.1853090117",
                "miles_per_hour": "11718.9856993689"
            },
            "miss_distance": {
                "astronomical": "0.0324205667",
                "lunar": "12.6116004463",
                "kilometers": "4850047.722512929",
                "miles": "3013679.9085752602"
            },
            "orbiting_body": "Earth"
        },
        {
            "close_approach_date": "2070-11-08",
            "close_approach_date_full": "2070-Nov-08 07:34",
            "epoch_date_close_approach": 3182657640000,
            "relative_velocity": {
                "kilometers_per_second": "18.8051446645",
                "kilometers_per_hour": "67698.5207923559",
                "miles_per_hour": "42065.2281001169"
            },
            "miss_distance": {
                "astronomical": "0.46908734",
                "lunar": "182.47497526",
                "kilometers": "70174466.9079658",
                "miles": "43604391.77409604"
            },
            "orbiting_body": "Earth"
        }
    ],
    "orbital_data": {
        "orbit_id": "6",
        "orbit_determination_date": "2017-04-06 08:43:05",
        "first_observation_date": "2013-12-31",
        "last_observation_date": "2014-01-10",
        "data_arc_in_days": 10,
        "observations_used": 38,
        "orbit_uncertainty": "7",
        "minimum_orbit_intersection": ".0315822",
        "jupiter_tisserand_invariant": "4.128",
        "epoch_osculation": "2459000.5",
        "eccentricity": ".3984218008872956",
        "semi_major_axis": "1.685948027830841",
        "inclination": "4.174562767771667",
        "ascending_node_longitude": "284.3032334280961",
        "orbital_period": "799.5851151739768",
        "perihelion_distance": "1.014229578380093",
        "perihelion_argument": "174.6639980883427",
        "aphelion_distance": "2.357666477281589",
        "perihelion_time": "2459056.380527689327",
        "mean_anomaly": "334.8407147827149",
        "mean_motion": ".4502334938059344",
        "equinox": "J2000",
        "orbit_class": {
            "orbit_class_type": "APO",
            "orbit_class_description": "Near-Earth asteroid orbits which cross the Earth’s orbit similar to that of 1862 Apollo",
            "orbit_class_range": "a (semi-major axis) > 1.0 AU; q (perihelion) < 1.017 AU"
        }
    },
    "is_sentry_object": false
}